[{"OBJECT_NAME":"HULIANWANG DIGUI-49","OBJECT_ID":"2025-168A","EPOCH":"2026-03-04T10:28:05.848320","MEAN_MOTION":13.29338578,"ECCENTRICITY":0.0007409,"INCLINATION":50.0049,"RA_OF_ASC_NODE":341.6668,"ARG_OF_PERICENTER":150.2321,"MEAN_ANOMALY":209.8974,"EPHEMERIS_TYPE":0,"CLASSIFICATION_TYPE":"U","NORAD_CAT_ID":65106,"ELEMENT_SET_NO":999,"REV_AT_EPOCH":2875,"BSTAR":0.00018375,"MEAN_MOTION_DOT":-3.9e-7,"MEAN_MOTION_DDOT":0},{"OBJECT_NAME":"HULIANWANG DIGUI-50","OBJECT_ID":"2025-168B","EPOCH":"2026-03-04T12:04:15.382848","MEAN_MOTION":13.29339245,"ECCENTRICITY":0.0008364,"INCLINATION":50.002,"RA_OF_ASC_NODE":341.2968,"ARG_OF_PERICENTER":136.3859,"MEAN_ANOMALY":223.7675,"EPHEMERIS_TYPE":0,"CLASSIFICATION_TYPE":"U","NORAD_CAT_ID":65107,"ELEMENT_SET_NO":999,"REV_AT_EPOCH":2876,"BSTAR":0.00019043,"MEAN_MOTION_DOT":-3.6e-7,"MEAN_MOTION_DDOT":0},{"OBJECT_NAME":"HULIANWANG DIGUI-51","OBJECT_ID":"2025-168C","EPOCH":"2026-03-04T10:03:57.196800","MEAN_MOTION":13.29339569,"ECCENTRICITY":0.0009711,"INCLINATION":50.0057,"RA_OF_ASC_NODE":341.5924,"ARG_OF_PERICENTER":136.1058,"MEAN_ANOMALY":224.0587,"EPHEMERIS_TYPE":0,"CLASSIFICATION_TYPE":"U","NORAD_CAT_ID":65108,"ELEMENT_SET_NO":999,"REV_AT_EPOCH":2875,"BSTAR":0.00020124,"MEAN_MOTION_DOT":-3.1e-7,"MEAN_MOTION_DDOT":0},{"OBJECT_NAME":"HULIANWANG DIGUI-52","OBJECT_ID":"2025-168D","EPOCH":"2026-03-04T09:52:05.240928","MEAN_MOTION":13.29338183,"ECCENTRICITY":0.0009605,"INCLINATION":50.005,"RA_OF_ASC_NODE":341.5318,"ARG_OF_PERICENTER":148.9725,"MEAN_ANOMALY":211.1716,"EPHEMERIS_TYPE":0,"CLASSIFICATION_TYPE":"U","NORAD_CAT_ID":65109,"ELEMENT_SET_NO":999,"REV_AT_EPOCH":2875,"BSTAR":0.00018184,"MEAN_MOTION_DOT":-4.0e-7,"MEAN_MOTION_DDOT":0},{"OBJECT_NAME":"HULIANWANG DIGUI-53","OBJECT_ID":"2025-168E","EPOCH":"2026-03-04T09:40:03.307584","MEAN_MOTION":13.29338101,"ECCENTRICITY":0.0008397,"INCLINATION":50.0058,"RA_OF_ASC_NODE":341.5102,"ARG_OF_PERICENTER":138.7193,"MEAN_ANOMALY":221.4315,"EPHEMERIS_TYPE":0,"CLASSIFICATION_TYPE":"U","NORAD_CAT_ID":65110,"ELEMENT_SET_NO":999,"REV_AT_EPOCH":2875,"BSTAR":0.00017768,"MEAN_MOTION_DOT":-4.2e-7,"MEAN_MOTION_DDOT":0},{"OBJECT_NAME":"HULIANWANG DIGUI-54","OBJECT_ID":"2025-168F","EPOCH":"2026-03-04T10:52:29.231904","MEAN_MOTION":13.29335279,"ECCENTRICITY":0.0009996,"INCLINATION":50.0008,"RA_OF_ASC_NODE":341.0207,"ARG_OF_PERICENTER":144.1599,"MEAN_ANOMALY":215.9946,"EPHEMERIS_TYPE":0,"CLASSIFICATION_TYPE":"U","NORAD_CAT_ID":65111,"ELEMENT_SET_NO":999,"REV_AT_EPOCH":2876,"BSTAR":0.00019239,"MEAN_MOTION_DOT":-3.5e-7,"MEAN_MOTION_DDOT":0},{"OBJECT_NAME":"HULIANWANG DIGUI-55","OBJECT_ID":"2025-168G","EPOCH":"2026-03-04T07:39:39.807072","MEAN_MOTION":13.29338795,"ECCENTRICITY":0.0011273,"INCLINATION":50.0014,"RA_OF_ASC_NODE":341.6537,"ARG_OF_PERICENTER":139.5838,"MEAN_ANOMALY":220.5873,"EPHEMERIS_TYPE":0,"CLASSIFICATION_TYPE":"U","NORAD_CAT_ID":65112,"ELEMENT_SET_NO":999,"REV_AT_EPOCH":2874,"BSTAR":0.00016872,"MEAN_MOTION_DOT":-4.6e-7,"MEAN_MOTION_DDOT":0},{"OBJECT_NAME":"HULIANWANG DIGUI-56","OBJECT_ID":"2025-168H","EPOCH":"2026-03-04T07:27:39.714048","MEAN_MOTION":13.29338183,"ECCENTRICITY":0.0010986,"INCLINATION":50.0006,"RA_OF_ASC_NODE":341.5948,"ARG_OF_PERICENTER":161.5743,"MEAN_ANOMALY":198.5529,"EPHEMERIS_TYPE":0,"CLASSIFICATION_TYPE":"U","NORAD_CAT_ID":65113,"ELEMENT_SET_NO":999,"REV_AT_EPOCH":2874,"BSTAR":0.00018664,"MEAN_MOTION_DOT":-3.7e-7,"MEAN_MOTION_DDOT":0},{"OBJECT_NAME":"HULIANWANG DIGUI-57","OBJECT_ID":"2025-168J","EPOCH":"2026-03-04T07:03:58.669056","MEAN_MOTION":13.29335076,"ECCENTRICITY":0.0008742,"INCLINATION":50.0034,"RA_OF_ASC_NODE":341.564,"ARG_OF_PERICENTER":152.0061,"MEAN_ANOMALY":208.1282,"EPHEMERIS_TYPE":0,"CLASSIFICATION_TYPE":"U","NORAD_CAT_ID":65114,"ELEMENT_SET_NO":999,"REV_AT_EPOCH":2875,"BSTAR":0.00021074,"MEAN_MOTION_DOT":-2.6e-7,"MEAN_MOTION_DDOT":0},{"OBJECT_NAME":"HULIANWANG DIGUI-58","OBJECT_ID":"2025-174A","EPOCH":"2026-03-04T11:32:47.841792","MEAN_MOTION":13.2442103,"ECCENTRICITY":0.0001252,"INCLINATION":86.4928,"RA_OF_ASC_NODE":287.3922,"ARG_OF_PERICENTER":86.779,"MEAN_ANOMALY":273.3487,"EPHEMERIS_TYPE":0,"CLASSIFICATION_TYPE":"U","NORAD_CAT_ID":65164,"ELEMENT_SET_NO":999,"REV_AT_EPOCH":2693,"BSTAR":0.00018584,"MEAN_MOTION_DOT":9.4e-7,"MEAN_MOTION_DDOT":0},{"OBJECT_NAME":"HULIANWANG DIGUI-59","OBJECT_ID":"2025-174B","EPOCH":"2026-03-04T11:43:40.249920","MEAN_MOTION":13.24421176,"ECCENTRICITY":0.0001243,"INCLINATION":86.4889,"RA_OF_ASC_NODE":287.3195,"ARG_OF_PERICENTER":86.1393,"MEAN_ANOMALY":273.9883,"EPHEMERIS_TYPE":0,"CLASSIFICATION_TYPE":"U","NORAD_CAT_ID":65165,"ELEMENT_SET_NO":999,"REV_AT_EPOCH":2693,"BSTAR":0.00018419,"MEAN_MOTION_DOT":9.4e-7,"MEAN_MOTION_DDOT":0},{"OBJECT_NAME":"HULIANWANG DIGUI-60","OBJECT_ID":"2025-174C","EPOCH":"2026-03-04T11:54:30.655296","MEAN_MOTION":13.2442142,"ECCENTRICITY":0.0001214,"INCLINATION":86.4921,"RA_OF_ASC_NODE":287.3861,"ARG_OF_PERICENTER":88.2084,"MEAN_ANOMALY":271.9189,"EPHEMERIS_TYPE":0,"CLASSIFICATION_TYPE":"U","NORAD_CAT_ID":65166,"ELEMENT_SET_NO":999,"REV_AT_EPOCH":2693,"BSTAR":0.00017866,"MEAN_MOTION_DOT":9.1e-7,"MEAN_MOTION_DDOT":0},{"OBJECT_NAME":"HULIANWANG DIGUI-61","OBJECT_ID":"2025-174D","EPOCH":"2026-03-04T10:16:40.907136","MEAN_MOTION":13.24419947,"ECCENTRICITY":0.0001167,"INCLINATION":86.493,"RA_OF_ASC_NODE":287.4317,"ARG_OF_PERICENTER":86.9712,"MEAN_ANOMALY":273.1555,"EPHEMERIS_TYPE":0,"CLASSIFICATION_TYPE":"U","NORAD_CAT_ID":65167,"ELEMENT_SET_NO":999,"REV_AT_EPOCH":2692,"BSTAR":0.00014529,"MEAN_MOTION_DOT":7.7e-7,"MEAN_MOTION_DDOT":0},{"OBJECT_NAME":"HULIANWANG DIGUI-62","OBJECT_ID":"2025-174E","EPOCH":"2026-03-04T10:27:29.700288","MEAN_MOTION":13.24421287,"ECCENTRICITY":0.0001167,"INCLINATION":86.4871,"RA_OF_ASC_NODE":287.319,"ARG_OF_PERICENTER":89.3242,"MEAN_ANOMALY":270.8025,"EPHEMERIS_TYPE":0,"CLASSIFICATION_TYPE":"U","NORAD_CAT_ID":65168,"ELEMENT_SET_NO":999,"REV_AT_EPOCH":2692,"BSTAR":0.00011928,"MEAN_MOTION_DOT":6.6e-7,"MEAN_MOTION_DDOT":0},{"OBJECT_NAME":"HULIANWANG DIGUI-63","OBJECT_ID":"2025-174F","EPOCH":"2026-03-04T10:38:21.162336","MEAN_MOTION":13.24421706,"ECCENTRICITY":0.0001188,"INCLINATION":86.4924,"RA_OF_ASC_NODE":287.4254,"ARG_OF_PERICENTER":86.6994,"MEAN_ANOMALY":273.4276,"EPHEMERIS_TYPE":0,"CLASSIFICATION_TYPE":"U","NORAD_CAT_ID":65169,"ELEMENT_SET_NO":999,"REV_AT_EPOCH":2692,"BSTAR":0.00012,"MEAN_MOTION_DOT":6.6e-7,"MEAN_MOTION_DDOT":0},{"OBJECT_NAME":"HULIANWANG DIGUI-64","OBJECT_ID":"2025-174G","EPOCH":"2026-03-04T12:38:01.385088","MEAN_MOTION":13.24421711,"ECCENTRICITY":0.0001178,"INCLINATION":86.4882,"RA_OF_ASC_NODE":287.323,"ARG_OF_PERICENTER":89.4739,"MEAN_ANOMALY":270.653,"EPHEMERIS_TYPE":0,"CLASSIFICATION_TYPE":"U","NORAD_CAT_ID":65170,"ELEMENT_SET_NO":999,"REV_AT_EPOCH":2693,"BSTAR":9.5433e-5,"MEAN_MOTION_DOT":5.6e-7,"MEAN_MOTION_DDOT":0}]
