HULIANWANG DIGUI-49     
1 65106U 25168A   26063.43617880 -.00000039  00000+0  18375-3 0  9993
2 65106  50.0049 341.6668 0007409 150.2321 209.8974 13.29338578 28756
HULIANWANG DIGUI-50     
1 65107U 25168B   26063.50295582 -.00000036  00000+0  19043-3 0  9993
2 65107  50.0020 341.2968 0008364 136.3859 223.7675 13.29339245 28763
HULIANWANG DIGUI-51     
1 65108U 25168C   26063.41941200 -.00000031  00000+0  20124-3 0  9996
2 65108  50.0057 341.5924 0009711 136.1058 224.0587 13.29339569 28759
HULIANWANG DIGUI-52     
1 65109U 25168D   26063.41117177 -.00000040  00000+0  18184-3 0  9998
2 65109  50.0050 341.5318 0009605 148.9725 211.1716 13.29338183 28756
HULIANWANG DIGUI-53     
1 65110U 25168E   26063.40281606 -.00000042  00000+0  17768-3 0  9997
2 65110  50.0058 341.5102 0008397 138.7193 221.4315 13.29338101 28759
HULIANWANG DIGUI-54     
1 65111U 25168F   26063.45311611 -.00000035  00000+0  19239-3 0  9990
2 65111  50.0008 341.0207 0009996 144.1599 215.9946 13.29335279 28765
HULIANWANG DIGUI-55     
1 65112U 25168G   26063.31921073 -.00000046  00000+0  16872-3 0  9997
2 65112  50.0014 341.6537 0011273 139.5838 220.5873 13.29338795 28745
HULIANWANG DIGUI-56     
1 65113U 25168H   26063.31087632 -.00000037  00000+0  18664-3 0  9993
2 65113  50.0006 341.5948 0010986 161.5743 198.5529 13.29338183 28745
HULIANWANG DIGUI-57     
1 65114U 25168J   26063.29442904 -.00000026  00000+0  21074-3 0  9995
2 65114  50.0034 341.5640 0008742 152.0061 208.1282 13.29335076 28754
HULIANWANG DIGUI-58     
1 65164U 25174A   26063.48110928  .00000094  00000+0  18584-3 0  9992
2 65164  86.4928 287.3922 0001252  86.7790 273.3487 13.24421030 26935
HULIANWANG DIGUI-59     
1 65165U 25174B   26063.48866030  .00000094  00000+0  18419-3 0  9992
2 65165  86.4889 287.3195 0001243  86.1393 273.9883 13.24421176 26934
HULIANWANG DIGUI-60     
1 65166U 25174C   26063.49618814  .00000091  00000+0  17866-3 0  9991
2 65166  86.4921 287.3861 0001214  88.2084 271.9189 13.24421420 26939
HULIANWANG DIGUI-61     
1 65167U 25174D   26063.42825124  .00000077  00000+0  14529-3 0  9996
2 65167  86.4930 287.4317 0001167  86.9712 273.1555 13.24419947 26928
HULIANWANG DIGUI-62     
1 65168U 25174E   26063.43576042  .00000066  00000+0  11928-3 0  9998
2 65168  86.4871 287.3190 0001167  89.3242 270.8025 13.24421287 26922
HULIANWANG DIGUI-63     
1 65169U 25174F   26063.44330049  .00000066  00000+0  12000-3 0  9997
2 65169  86.4924 287.4254 0001188  86.6994 273.4276 13.24421706 26924
HULIANWANG DIGUI-64     
1 65170U 25174G   26063.52640492  .00000056  00000+0  95433-4 0  9995
2 65170  86.4882 287.3230 0001178  89.4739 270.6530 13.24421711 26938
